[
    {
        "Altitude(m)": 612513.960070639,
        "Argument of Periapsis(deg)": 0.0,
        "Eccentricity": 0.0,
        "Inclination(deg)": 60.0,
        "Latitude(deg)": -28.136055346707415,
        "Longitude(deg)": -72.08687174928748,
        "Mean Anomaly(deg)": -147.27269999999996,
        "RAAN(deg)": 190.0,
        "Satellite Name": "Test1 849",
        "Satellite Number": 849,
        "Semi-Major Axis(m)": 6980739.136638005,
        "Time(s)": 0
    },
    {
        "Altitude(m)": 612708.3283309535,
        "Argument of Periapsis(deg)": 0.00010418945913296404,
        "Eccentricity": 0.0,
        "Inclination(deg)": 60.0,
        "Latitude(deg)": -28.647794338266806,
        "Longitude(deg)": -71.7296407739438,
        "Mean Anomaly(deg)": -146.65259385453817,
        "RAAN(deg)": 189.99957995086027,
        "Satellite Name": "Test1 849",
        "Satellite Number": 849,
        "Semi-Major Axis(m)": 6980739.136638005,
        "Time(s)": 10
    }
]